{
  "type": "FeatureCollection",
  "features": [
    {
      "type": "Feature",
      "properties": {
        "norad_id": 30172,
        "name": "FENGYUN 1C DEB",
        "group": "fengyun-1c-debris",
        "lat": -63.384605120218815,
        "lon": -0.45319513908194425,
        "alt_km": 892.1358000523642,
        "timestamp": "2025-12-27T02:10:16.463876+00:00",
        "meta_object_name": "FENGYUN 1C DEB",
        "meta_object_id": "1999-025UD",
        "meta_epoch": "2025-12-26T10:12:05.438016",
        "meta_mean_motion": 14.12527736,
        "meta_eccentricity": 0.006889,
        "meta_inclination": 99.2365,
        "meta_ra_of_asc_node": 339.912,
        "meta_arg_of_pericenter": 163.2333,
        "meta_mean_anomaly": 349.5246,
        "meta_ephemeris_type": 0,
        "meta_classification_type": "U",
        "meta_norad_cat_id": 30172,
        "meta_element_set_no": 999,
        "meta_rev_at_epoch": 96710,
        "meta_bstar": 0.0012907,
        "meta_mean_motion_dot": 2.394e-05,
        "meta_mean_motion_ddot": 0,
        "tle_line1": "1 30172U 99025UD  25360.42506294  .00002394  00000+0  12907-2 0  9994",
        "tle_line2": "2 30172  99.2365 339.9120 0068890 163.2333 349.5246 14.12527736967102"
      },
      "geometry": {
        "type": "Point",
        "coordinates": [
          -0.45319513908194425,
          -63.384605120218815
        ]
      }
    },
    {
      "type": "Feature",
      "properties": {
        "norad_id": 30173,
        "name": "FENGYUN 1C DEB",
        "group": "fengyun-1c-debris",
        "lat": -23.029514264743284,
        "lon": -112.00032462490681,
        "alt_km": 817.61349007421,
        "timestamp": "2025-12-27T02:10:16.463886+00:00",
        "meta_object_name": "FENGYUN 1C DEB",
        "meta_object_id": "1999-025UE",
        "meta_epoch": "2025-12-26T03:25:11.396064",
        "meta_mean_motion": 14.11458936,
        "meta_eccentricity": 0.00815773,
        "meta_inclination": 98.975,
        "meta_ra_of_asc_node": 70.9039,
        "meta_arg_of_pericenter": 250.693,
        "meta_mean_anomaly": 178.9425,
        "meta_ephemeris_type": 0,
        "meta_classification_type": "U",
        "meta_norad_cat_id": 30173,
        "meta_element_set_no": 999,
        "meta_rev_at_epoch": 96738,
        "meta_bstar": 0.0016692559,
        "meta_mean_motion_dot": 3.076e-05,
        "meta_mean_motion_ddot": 0,
        "tle_line1": "1 30173U 99025UE  25360.14249301  .00003076  00000+0  16693-2 0  9991",
        "tle_line2": "2 30173  98.9750  70.9039 0081577 250.6930 178.9425 14.11458936967386"
      },
      "geometry": {
        "type": "Point",
        "coordinates": [
          -112.00032462490681,
          -23.029514264743284
        ]
      }
    },
    {
      "type": "Feature",
      "properties": {
        "norad_id": 30174,
        "name": "FENGYUN 1C DEB",
        "group": "fengyun-1c-debris",
        "lat": -47.922357201201095,
        "lon": -38.56999398499745,
        "alt_km": 638.446267349349,
        "timestamp": "2025-12-27T02:10:16.463897+00:00",
        "meta_object_name": "FENGYUN 1C DEB",
        "meta_object_id": "1999-025UF",
        "meta_epoch": "2025-12-26T17:05:37.562784",
        "meta_mean_motion": 14.81925928,
        "meta_eccentricity": 0.0019064,
        "meta_inclination": 98.7761,
        "meta_ra_of_asc_node": 150.8679,
        "meta_arg_of_pericenter": 359.248,
        "meta_mean_anomaly": 12.8758,
        "meta_ephemeris_type": 0,
        "meta_classification_type": "U",
        "meta_norad_cat_id": 30174,
        "meta_element_set_no": 999,
        "meta_rev_at_epoch": 98575,
        "meta_bstar": 0.004799,
        "meta_mean_motion_dot": 0.00038267,
        "meta_mean_motion_ddot": 0,
        "tle_line1": "1 30174U 99025UF  25360.71224031  .00038267  00000+0  47990-2 0  9992",
        "tle_line2": "2 30174  98.7761 150.8679 0019064 359.2480  12.8758 14.81925928985756"
      },
      "geometry": {
        "type": "Point",
        "coordinates": [
          -38.56999398499745,
          -47.922357201201095
        ]
      }
    },
    {
      "type": "Feature",
      "properties": {
        "norad_id": 30175,
        "name": "FENGYUN 1C DEB",
        "group": "fengyun-1c-debris",
        "lat": -49.19333128641283,
        "lon": 68.16854895926755,
        "alt_km": 1032.7360969581869,
        "timestamp": "2025-12-27T02:10:16.463907+00:00",
        "meta_object_name": "FENGYUN 1C DEB",
        "meta_object_id": "1999-025UG",
        "meta_epoch": "2025-12-26T02:26:39.084864",
        "meta_mean_motion": 13.83879828,
        "meta_eccentricity": 0.0146761,
        "meta_inclination": 99.3794,
        "meta_ra_of_asc_node": 56.1456,
        "meta_arg_of_pericenter": 177.2143,
        "meta_mean_anomaly": 248.891,
        "meta_ephemeris_type": 0,
        "meta_classification_type": "U",
        "meta_norad_cat_id": 30175,
        "meta_element_set_no": 999,
        "meta_rev_at_epoch": 95525,
        "meta_bstar": 0.00035987099,
        "meta_mean_motion_dot": 3.89e-06,
        "meta_mean_motion_ddot": 0,
        "tle_line1": "1 30175U 99025UG  25360.10184126  .00000389  00000+0  35987-3 0  9994",
        "tle_line2": "2 30175  99.3794  56.1456 0146761 177.2143 248.8910 13.83879828955251"
      },
      "geometry": {
        "type": "Point",
        "coordinates": [
          68.16854895926755,
          -49.19333128641283
        ]
      }
    },
    {
      "type": "Feature",
      "properties": {
        "norad_id": 30177,
        "name": "FENGYUN 1C DEB",
        "group": "fengyun-1c-debris",
        "lat": 73.15718102435834,
        "lon": 153.2512959538777,
        "alt_km": 684.161538438856,
        "timestamp": "2025-12-27T02:10:16.463917+00:00",
        "meta_object_name": "FENGYUN 1C DEB",
        "meta_object_id": "1999-025UJ",
        "meta_epoch": "2025-12-25T20:02:22.551072",
        "meta_mean_motion": 13.62853723,
        "meta_eccentricity": 0.04521722,
        "meta_inclination": 98.6281,
        "meta_ra_of_asc_node": 302.0334,
        "meta_arg_of_pericenter": 103.8889,
        "meta_mean_anomaly": 323.8038,
        "meta_ephemeris_type": 0,
        "meta_classification_type": "U",
        "meta_norad_cat_id": 30177,
        "meta_element_set_no": 999,
        "meta_rev_at_epoch": 93641,
        "meta_bstar": 0.0011812777,
        "meta_mean_motion_dot": 1.809e-05,
        "meta_mean_motion_ddot": 0,
        "tle_line1": "1 30177U 99025UJ  25359.83498323  .00001809  00000+0  11813-2 0  9990",
        "tle_line2": "2 30177  98.6281 302.0334 0452172 103.8889 323.8038 13.62853723936417"
      },
      "geometry": {
        "type": "Point",
        "coordinates": [
          153.2512959538777,
          73.15718102435834
        ]
      }
    },
    {
      "type": "Feature",
      "properties": {
        "norad_id": 30178,
        "name": "FENGYUN 1C DEB",
        "group": "fengyun-1c-debris",
        "lat": 31.439390175369375,
        "lon": 65.70990483756708,
        "alt_km": 910.2717859196582,
        "timestamp": "2025-12-27T02:10:16.463927+00:00",
        "meta_object_name": "FENGYUN 1C DEB",
        "meta_object_id": "1999-025UK",
        "meta_epoch": "2025-12-26T10:26:44.863008",
        "meta_mean_motion": 13.58732946,
        "meta_eccentricity": 0.02813,
        "meta_inclination": 102.2607,
        "meta_ra_of_asc_node": 237.2534,
        "meta_arg_of_pericenter": 95.6847,
        "meta_mean_anomaly": 85.8927,
        "meta_ephemeris_type": 0,
        "meta_classification_type": "U",
        "meta_norad_cat_id": 30178,
        "meta_element_set_no": 999,
        "meta_rev_at_epoch": 93357,
        "meta_bstar": 0.0019984,
        "meta_mean_motion_dot": 1.831e-05,
        "meta_mean_motion_ddot": 0,
        "tle_line1": "1 30178U 99025UK  25360.43524147  .00001831  00000+0  19984-2 0  9995",
        "tle_line2": "2 30178 102.2607 237.2534 0281300  95.6847  85.8927 13.58732946933572"
      },
      "geometry": {
        "type": "Point",
        "coordinates": [
          65.70990483756708,
          31.439390175369375
        ]
      }
    },
    {
      "type": "Feature",
      "properties": {
        "norad_id": 30181,
        "name": "FENGYUN 1C DEB",
        "group": "fengyun-1c-debris",
        "lat": 26.074902685893832,
        "lon": -91.1243275821525,
        "alt_km": 820.5408054772133,
        "timestamp": "2025-12-27T02:10:16.463938+00:00",
        "meta_object_name": "FENGYUN 1C DEB",
        "meta_object_id": "1999-025UN",
        "meta_epoch": "2025-12-26T19:19:06.764160",
        "meta_mean_motion": 14.29346228,
        "meta_eccentricity": 0.0040231,
        "meta_inclination": 98.842,
        "meta_ra_of_asc_node": 84.2175,
        "meta_arg_of_pericenter": 317.3202,
        "meta_mean_anomaly": 167.901,
        "meta_ephemeris_type": 0,
        "meta_classification_type": "U",
        "meta_norad_cat_id": 30181,
        "meta_element_set_no": 999,
        "meta_rev_at_epoch": 97712,
        "meta_bstar": 0.0015053,
        "meta_mean_motion_dot": 3.823e-05,
        "meta_mean_motion_ddot": 0,
        "tle_line1": "1 30181U 99025UN  25360.80493940  .00003823  00000+0  15053-2 0  9992",
        "tle_line2": "2 30181  98.8420  84.2175 0040231 317.3202 167.9010 14.29346228977122"
      },
      "geometry": {
        "type": "Point",
        "coordinates": [
          -91.1243275821525,
          26.074902685893832
        ]
      }
    }
  ]
}